<osmChange generator="rova-to-osm" version="0.6"><create><node id="-105" lat="52.4878" lon="6.11689" user="Pozoman" version="1" visible="true"><tag k="access" v="yes" /><tag k="operator" v="ROVA" /><tag k="amenity" v="recycling" /><tag k="recycling:glass_bottles" v="yes" /><tag k="recycling_type" v="container" /></node><node id="-106" lat="52.5157" lon="6.09713" user="Pozoman" version="1" visible="true"><tag k="access" v="yes" /><tag k="operator" v="ROVA" /><tag k="amenity" v="recycling" /><tag k="recycling:glass_bottles" v="yes" /><tag k="recycling_type" v="container" /></node><node id="-107" lat="52.50034" lon="6.10499" user="Pozoman" version="1" visible="true"><tag k="access" v="yes" /><tag k="operator" v="ROVA" /><tag k="amenity" v="recycling" /><tag k="recycling:glass_bottles" v="yes" /><tag k="recycling_type" v="container" /></node><node id="-108" lat="52.53612" lon="6.09843" user="Pozoman" version="1" visible="true"><tag k="access" v="yes" /><tag k="operator" v="ROVA" /><tag k="amenity" v="recycling" /><tag k="recycling:glass_bottles" v="yes" /><tag k="recycling_type" v="container" /></node><node id="-109" lat="52.51422" lon="6.1151" user="Pozoman" version="1" visible="true"><tag k="access" v="yes" /><tag k="operator" v="ROVA" /><tag k="amenity" v="recycling" /><tag k="recycling:glass_bottles" v="yes" /><tag k="recycling_type" v="container" /></node><node id="-110" lat="52.52892" lon="6.10169" user="Pozoman" version="1" visible="true"><tag k="access" v="yes" /><tag k="operator" v="ROVA" /><tag k="amenity" v="recycling" /><tag k="recycling:glass_bottles" v="yes" /><tag k="recycling_type" v="container" /></node><node id="-111" lat="52.52455" lon="6.06414" user="Pozoman" version="1" visible="true"><tag k="access" v="yes" /><tag k="operator" v="ROVA" /><tag k="amenity" v="recycling" /><tag k="recycling:glass_bottles" v="yes" /><tag k="recycling_type" v="container" /></node><node id="-112" lat="52.49732" lon="6.09337" user="Pozoman" version="1" visible="true"><tag k="access" v="yes" /><tag k="operator" v="ROVA" /><tag k="amenity" v="recycling" /><tag k="recycling:glass_bottles" v="yes" /><tag k="recycling_type" v="container" /></node><node id="-113" lat="52.51541" lon="6.10717" user="Pozoman" version="1" visible="true"><tag k="access" v="yes" /><tag k="operator" v="ROVA" /><tag k="amenity" v="recycling" /><tag k="recycling:glass_bottles" v="yes" /><tag k="recycling_type" v="container" /></node><node id="-114" lat="52.53001" lon="6.1806" user="Pozoman" version="1" visible="true"><tag k="access" v="yes" /><tag k="operator" v="ROVA" /><tag k="amenity" v="recycling" /><tag k="recycling:glass_bottles" v="yes" /><tag k="recycling_type" v="container" /></node><node id="-115" lat="52.52131" lon="6.10668" user="Pozoman" version="1" visible="true"><tag k="access" v="yes" /><tag k="operator" v="ROVA" /><tag k="amenity" v="recycling" /><tag k="recycling:glass_bottles" v="yes" /><tag k="recycling_type" v="container" /></node><node id="-116" lat="52.5042" lon="6.10374" user="Pozoman" version="1" visible="true"><tag k="access" v="yes" /><tag k="operator" v="ROVA" /><tag k="amenity" v="recycling" /><tag k="recycling:glass_bottles" v="yes" /><tag k="recycling_type" v="container" /></node><node id="-117" lat="52.52944" lon="6.10109" user="Pozoman" version="1" visible="true"><tag k="access" v="yes" /><tag k="operator" v="ROVA" /><tag k="amenity" v="recycling" /><tag k="recycling:glass_bottles" v="yes" /><tag k="recycling_type" v="container" /></node><node id="-118" lat="52.49924" lon="6.11409" user="Pozoman" version="1" visible="true"><tag k="access" v="yes" /><tag k="operator" v="ROVA" /><tag k="amenity" v="recycling" /><tag k="recycling:glass_bottles" v="yes" /><tag k="recycling_type" v="container" /></node><node id="-119" lat="52.53356" lon="6.05458" user="Pozoman" version="1" visible="true"><tag k="access" v="yes" /><tag k="operator" v="ROVA" /><tag k="amenity" v="recycling" /><tag k="recycling:glass_bottles" v="yes" /><tag k="recycling_type" v="container" /></node><node id="-120" lat="52.52884" lon="6.10212" user="Pozoman" version="1" visible="true"><tag k="access" v="yes" /><tag k="operator" v="ROVA" /><tag k="amenity" v="recycling" /><tag k="recycling:glass_bottles" v="yes" /><tag k="recycling_type" v="container" /></node><node id="-121" lat="52.52412" lon="6.1342" user="Pozoman" version="1" visible="true"><tag k="access" v="yes" /><tag k="operator" v="ROVA" /><tag k="amenity" v="recycling" /><tag k="recycling:glass_bottles" v="yes" /><tag k="recycling_type" v="container" /></node><node id="-122" lat="52.52222" lon="6.09186" user="Pozoman" version="1" visible="true"><tag k="access" v="yes" /><tag k="operator" v="ROVA" /><tag k="amenity" v="recycling" /><tag k="recycling:glass_bottles" v="yes" /><tag k="recycling_type" v="container" /></node><node id="-123" lat="52.51541" lon="6.10717" user="Pozoman" version="1" visible="true"><tag k="access" v="yes" /><tag k="operator" v="ROVA" /><tag k="amenity" v="recycling" /><tag k="recycling:glass_bottles" v="yes" /><tag k="recycling_type" v="container" /></node><node id="-124" lat="52.51503" lon="6.10633" user="Pozoman" version="1" visible="true"><tag k="access" v="yes" /><tag k="operator" v="ROVA" /><tag k="amenity" v="recycling" /><tag k="recycling:glass_bottles" v="yes" /><tag k="recycling_type" v="container" /></node><node id="-125" lat="52.50034" lon="6.10495" user="Pozoman" version="1" visible="true"><tag k="access" v="yes" /><tag k="operator" v="ROVA" /><tag k="amenity" v="recycling" /><tag k="recycling:glass_bottles" v="yes" /><tag k="recycling_type" v="container" /></node><node id="-126" lat="52.52992" lon="6.1208" user="Pozoman" version="1" visible="true"><tag k="access" v="yes" /><tag k="operator" v="ROVA" /><tag k="amenity" v="recycling" /><tag k="recycling:glass_bottles" v="yes" /><tag k="recycling_type" v="container" /></node><node id="-127" lat="52.50739" lon="6.09571" user="Pozoman" version="1" visible="true"><tag k="access" v="yes" /><tag k="operator" v="ROVA" /><tag k="amenity" v="recycling" /><tag k="recycling:glass_bottles" v="yes" /><tag k="recycling_type" v="container" /></node><node id="-128" lat="52.50796" lon="6.07792" user="Pozoman" version="1" visible="true"><tag k="access" v="yes" /><tag k="operator" v="ROVA" /><tag k="amenity" v="recycling" /><tag k="recycling:glass_bottles" v="yes" /><tag k="recycling_type" v="container" /></node><node id="-129" lat="52.53619" lon="6.10896" user="Pozoman" version="1" visible="true"><tag k="access" v="yes" /><tag k="operator" v="ROVA" /><tag k="amenity" v="recycling" /><tag k="recycling:glass_bottles" v="yes" /><tag k="recycling_type" v="container" /></node><node id="-130" lat="52.5218" lon="6.11128" user="Pozoman" version="1" visible="true"><tag k="access" v="yes" /><tag k="operator" v="ROVA" /><tag k="amenity" v="recycling" /><tag k="recycling:glass_bottles" v="yes" /><tag k="recycling_type" v="container" /></node><node id="-131" lat="52.53342" lon="6.05693" user="Pozoman" version="1" visible="true"><tag k="access" v="yes" /><tag k="operator" v="ROVA" /><tag k="amenity" v="recycling" /><tag k="recycling:glass_bottles" v="yes" /><tag k="recycling_type" v="container" /></node><node id="-132" lat="52.48268" lon="6.11116" user="Pozoman" version="1" visible="true"><tag k="access" v="yes" /><tag k="operator" v="ROVA" /><tag k="amenity" v="recycling" /><tag k="recycling:glass_bottles" v="yes" /><tag k="recycling_type" v="container" /></node><node id="-133" lat="52.54091" lon="6.06097" user="Pozoman" version="1" visible="true"><tag k="access" v="yes" /><tag k="operator" v="ROVA" /><tag k="amenity" v="recycling" /><tag k="recycling:glass_bottles" v="yes" /><tag k="recycling_type" v="container" /></node><node id="-134" lat="52.51086" lon="6.09503" user="Pozoman" version="1" visible="true"><tag k="access" v="yes" /><tag k="operator" v="ROVA" /><tag k="amenity" v="recycling" /><tag k="recycling:glass_bottles" v="yes" /><tag k="recycling_type" v="container" /></node><node id="-135" lat="52.53029" lon="6.10274" user="Pozoman" version="1" visible="true"><tag k="access" v="yes" /><tag k="operator" v="ROVA" /><tag k="amenity" v="recycling" /><tag k="recycling:glass_bottles" v="yes" /><tag k="recycling_type" v="container" /></node><node id="-136" lat="52.51001" lon="6.08356" user="Pozoman" version="1" visible="true"><tag k="access" v="yes" /><tag k="operator" v="ROVA" /><tag k="amenity" v="recycling" /><tag k="recycling:glass_bottles" v="yes" /><tag k="recycling_type" v="container" /></node><node id="-137" lat="52.51388" lon="6.09404" user="Pozoman" version="1" visible="true"><tag k="access" v="yes" /><tag k="operator" v="ROVA" /><tag k="amenity" v="recycling" /><tag k="recycling:glass_bottles" v="yes" /><tag k="recycling_type" v="container" /></node><node id="-138" lat="52.50796" lon="6.07797" user="Pozoman" version="1" visible="true"><tag k="access" v="yes" /><tag k="operator" v="ROVA" /><tag k="amenity" v="recycling" /><tag k="recycling:glass_bottles" v="yes" /><tag k="recycling_type" v="container" /></node><node id="-139" lat="52.51744" lon="6.10636" user="Pozoman" version="1" visible="true"><tag k="access" v="yes" /><tag k="operator" v="ROVA" /><tag k="amenity" v="recycling" /><tag k="recycling:glass_bottles" v="yes" /><tag k="recycling_type" v="container" /></node><node id="-140" lat="52.48268" lon="6.11121" user="Pozoman" version="1" visible="true"><tag k="access" v="yes" /><tag k="operator" v="ROVA" /><tag k="amenity" v="recycling" /><tag k="recycling:glass_bottles" v="yes" /><tag k="recycling_type" v="container" /></node><node id="-141" lat="52.51747" lon="6.10637" user="Pozoman" version="1" visible="true"><tag k="access" v="yes" /><tag k="operator" v="ROVA" /><tag k="amenity" v="recycling" /><tag k="recycling:glass_bottles" v="yes" /><tag k="recycling_type" v="container" /></node><node id="-142" lat="52.51044" lon="6.09045" user="Pozoman" version="1" visible="true"><tag k="access" v="yes" /><tag k="operator" v="ROVA" /><tag k="amenity" v="recycling" /><tag k="recycling:glass_bottles" v="yes" /><tag k="recycling_type" v="container" /></node><node id="-143" lat="52.5241" lon="6.13417" user="Pozoman" version="1" visible="true"><tag k="access" v="yes" /><tag k="operator" v="ROVA" /><tag k="amenity" v="recycling" /><tag k="recycling:glass_bottles" v="yes" /><tag k="recycling_type" v="container" /></node><node id="-144" lat="52.50738" lon="6.09573" user="Pozoman" version="1" visible="true"><tag k="access" v="yes" /><tag k="operator" v="ROVA" /><tag k="amenity" v="recycling" /><tag k="recycling:glass_bottles" v="yes" /><tag k="recycling_type" v="container" /></node><node id="-145" lat="52.54093" lon="6.061" user="Pozoman" version="1" visible="true"><tag k="access" v="yes" /><tag k="operator" v="ROVA" /><tag k="amenity" v="recycling" /><tag k="recycling:glass_bottles" v="yes" /><tag k="recycling_type" v="container" /></node><node id="-146" lat="52.51847" lon="6.04491" user="Pozoman" version="1" visible="true"><tag k="access" v="yes" /><tag k="operator" v="ROVA" /><tag k="amenity" v="recycling" /><tag k="recycling:glass_bottles" v="yes" /><tag k="recycling_type" v="container" /></node><node id="-147" lat="52.50423" lon="6.10374" user="Pozoman" version="1" visible="true"><tag k="access" v="yes" /><tag k="operator" v="ROVA" /><tag k="amenity" v="recycling" /><tag k="recycling:glass_bottles" v="yes" /><tag k="recycling_type" v="container" /></node><node id="-148" lat="52.50937" lon="6.11089" user="Pozoman" version="1" visible="true"><tag k="access" v="yes" /><tag k="operator" v="ROVA" /><tag k="amenity" v="recycling" /><tag k="recycling:glass_bottles" v="yes" /><tag k="recycling_type" v="container" /></node><node id="-149" lat="52.52219" lon="6.04895" user="Pozoman" version="1" visible="true"><tag k="access" v="yes" /><tag k="operator" v="ROVA" /><tag k="amenity" v="recycling" /><tag k="recycling:glass_bottles" v="yes" /><tag k="recycling_type" v="container" /></node><node id="-150" lat="52.50036" lon="6.10489" user="Pozoman" version="1" visible="true"><tag k="access" v="yes" /><tag k="operator" v="ROVA" /><tag k="amenity" v="recycling" /><tag k="recycling:glass_bottles" v="yes" /><tag k="recycling_type" v="container" /></node><node id="-151" lat="52.52994" lon="6.12081" user="Pozoman" version="1" visible="true"><tag k="access" v="yes" /><tag k="operator" v="ROVA" /><tag k="amenity" v="recycling" /><tag k="recycling:glass_bottles" v="yes" /><tag k="recycling_type" v="container" /></node><node id="-152" lat="52.51339" lon="6.08953" user="Pozoman" version="1" visible="true"><tag k="access" v="yes" /><tag k="operator" v="ROVA" /><tag k="amenity" v="recycling" /><tag k="recycling:glass_bottles" v="yes" /><tag k="recycling_type" v="container" /></node><node id="-153" lat="52.51137" lon="6.10228" user="Pozoman" version="1" visible="true"><tag k="access" v="yes" /><tag k="operator" v="ROVA" /><tag k="amenity" v="recycling" /><tag k="recycling:glass_bottles" v="yes" /><tag k="recycling_type" v="container" /></node><node id="-154" lat="52.53003" lon="6.18061" user="Pozoman" version="1" visible="true"><tag k="access" v="yes" /><tag k="operator" v="ROVA" /><tag k="amenity" v="recycling" /><tag k="recycling:glass_bottles" v="yes" /><tag k="recycling_type" v="container" /></node><node id="-155" lat="52.5065" lon="6.10301" user="Pozoman" version="1" visible="true"><tag k="access" v="yes" /><tag k="operator" v="ROVA" /><tag k="amenity" v="recycling" /><tag k="recycling:glass_bottles" v="yes" /><tag k="recycling_type" v="container" /></node><node id="-156" lat="52.50736" lon="6.05397" user="Pozoman" version="1" visible="true"><tag k="access" v="yes" /><tag k="operator" v="ROVA" /><tag k="amenity" v="recycling" /><tag k="recycling:glass_bottles" v="yes" /><tag k="recycling_type" v="container" /></node><node id="-157" lat="52.48396" lon="6.11367" user="Pozoman" version="1" visible="true"><tag k="access" v="yes" /><tag k="operator" v="ROVA" /><tag k="amenity" v="recycling" /><tag k="recycling:glass_bottles" v="yes" /><tag k="recycling_type" v="container" /></node><node id="-158" lat="52.52884" lon="6.10213" user="Pozoman" version="1" visible="true"><tag k="access" v="yes" /><tag k="operator" v="ROVA" /><tag k="amenity" v="recycling" /><tag k="recycling:glass_bottles" v="yes" /><tag k="recycling_type" v="container" /></node><node id="-159" lat="52.53458" lon="6.15073" user="Pozoman" version="1" visible="true"><tag k="access" v="yes" /><tag k="operator" v="ROVA" /><tag k="amenity" v="recycling" /><tag k="recycling:glass_bottles" v="yes" /><tag k="recycling_type" v="container" /></node><node id="-160" lat="52.51574" lon="6.09318" user="Pozoman" version="1" visible="true"><tag k="access" v="yes" /><tag k="operator" v="ROVA" /><tag k="amenity" v="recycling" /><tag k="recycling:glass_bottles" v="yes" /><tag k="recycling_type" v="container" /></node><node id="-161" lat="52.52179" lon="6.11126" user="Pozoman" version="1" visible="true"><tag k="access" v="yes" /><tag k="operator" v="ROVA" /><tag k="amenity" v="recycling" /><tag k="recycling:glass_bottles" v="yes" /><tag k="recycling_type" v="container" /></node><node id="-162" lat="52.50635" lon="6.09971" user="Pozoman" version="1" visible="true"><tag k="access" v="yes" /><tag k="operator" v="ROVA" /><tag k="amenity" v="recycling" /><tag k="recycling:glass_bottles" v="yes" /><tag k="recycling_type" v="container" /></node><node id="-163" lat="52.51043" lon="6.09046" user="Pozoman" version="1" visible="true"><tag k="access" v="yes" /><tag k="operator" v="ROVA" /><tag k="amenity" v="recycling" /><tag k="recycling:glass_bottles" v="yes" /><tag k="recycling_type" v="container" /></node><node id="-164" lat="52.4973" lon="6.09335" user="Pozoman" version="1" visible="true"><tag k="access" v="yes" /><tag k="operator" v="ROVA" /><tag k="amenity" v="recycling" /><tag k="recycling:glass_bottles" v="yes" /><tag k="recycling_type" v="container" /></node><node id="-165" lat="52.51504" lon="6.10632" user="Pozoman" version="1" visible="true"><tag k="access" v="yes" /><tag k="operator" v="ROVA" /><tag k="amenity" v="recycling" /><tag k="recycling:glass_bottles" v="yes" /><tag k="recycling_type" v="container" /></node><node id="-166" lat="52.52682" lon="6.0838" user="Pozoman" version="1" visible="true"><tag k="access" v="yes" /><tag k="operator" v="ROVA" /><tag k="amenity" v="recycling" /><tag k="recycling:glass_bottles" v="yes" /><tag k="recycling_type" v="container" /></node><node id="-167" lat="52.48292" lon="6.10971" user="Pozoman" version="1" visible="true"><tag k="access" v="yes" /><tag k="operator" v="ROVA" /><tag k="amenity" v="recycling" /><tag k="recycling:glass_bottles" v="yes" /><tag k="recycling_type" v="container" /></node><node id="-168" lat="52.50885" lon="6.11199" user="Pozoman" version="1" visible="true"><tag k="access" v="yes" /><tag k="operator" v="ROVA" /><tag k="amenity" v="recycling" /><tag k="recycling:glass_bottles" v="yes" /><tag k="recycling_type" v="container" /></node><node id="-169" lat="52.52684" lon="6.08383" user="Pozoman" version="1" visible="true"><tag k="access" v="yes" /><tag k="operator" v="ROVA" /><tag k="amenity" v="recycling" /><tag k="recycling:glass_bottles" v="yes" /><tag k="recycling_type" v="container" /></node><node id="-170" lat="52.52197" lon="6.08578" user="Pozoman" version="1" visible="true"><tag k="access" v="yes" /><tag k="operator" v="ROVA" /><tag k="amenity" v="recycling" /><tag k="recycling:glass_bottles" v="yes" /><tag k="recycling_type" v="container" /></node><node id="-171" lat="52.52685" lon="6.08389" user="Pozoman" version="1" visible="true"><tag k="access" v="yes" /><tag k="operator" v="ROVA" /><tag k="amenity" v="recycling" /><tag k="recycling:glass_bottles" v="yes" /><tag k="recycling_type" v="container" /></node><node id="-172" lat="52.51673" lon="6.10079" user="Pozoman" version="1" visible="true"><tag k="access" v="yes" /><tag k="operator" v="ROVA" /><tag k="amenity" v="recycling" /><tag k="recycling:glass_bottles" v="yes" /><tag k="recycling_type" v="container" /></node><node id="-173" lat="52.5121" lon="6.0963" user="Pozoman" version="1" visible="true"><tag k="access" v="yes" /><tag k="operator" v="ROVA" /><tag k="amenity" v="recycling" /><tag k="recycling:glass_bottles" v="yes" /><tag k="recycling_type" v="container" /></node><node id="-174" lat="52.48396" lon="6.11371" user="Pozoman" version="1" visible="true"><tag k="access" v="yes" /><tag k="operator" v="ROVA" /><tag k="amenity" v="recycling" /><tag k="recycling:glass_bottles" v="yes" /><tag k="recycling_type" v="container" /></node><node id="-175" lat="52.51421" lon="6.1151" user="Pozoman" version="1" visible="true"><tag k="access" v="yes" /><tag k="operator" v="ROVA" /><tag k="amenity" v="recycling" /><tag k="recycling:glass_bottles" v="yes" /><tag k="recycling_type" v="container" /></node><node id="-176" lat="52.52194" lon="6.08577" user="Pozoman" version="1" visible="true"><tag k="access" v="yes" /><tag k="operator" v="ROVA" /><tag k="amenity" v="recycling" /><tag k="recycling:glass_bottles" v="yes" /><tag k="recycling_type" v="container" /></node><node id="-177" lat="52.52218" lon="6.09187" user="Pozoman" version="1" visible="true"><tag k="access" v="yes" /><tag k="operator" v="ROVA" /><tag k="amenity" v="recycling" /><tag k="recycling:glass_bottles" v="yes" /><tag k="recycling_type" v="container" /></node><node id="-178" lat="52.51138" lon="6.10231" user="Pozoman" version="1" visible="true"><tag k="access" v="yes" /><tag k="operator" v="ROVA" /><tag k="amenity" v="recycling" /><tag k="recycling:glass_bottles" v="yes" /><tag k="recycling_type" v="container" /></node><node id="-179" lat="52.5289" lon="6.10168" user="Pozoman" version="1" visible="true"><tag k="access" v="yes" /><tag k="operator" v="ROVA" /><tag k="amenity" v="recycling" /><tag k="recycling:glass_bottles" v="yes" /><tag k="recycling_type" v="container" /></node><node id="-180" lat="52.49337" lon="6.16732" user="Pozoman" version="1" visible="true"><tag k="access" v="yes" /><tag k="operator" v="ROVA" /><tag k="amenity" v="recycling" /><tag k="recycling:glass_bottles" v="yes" /><tag k="recycling_type" v="container" /></node><node id="-181" lat="52.51574" lon="6.09318" user="Pozoman" version="1" visible="true"><tag k="access" v="yes" /><tag k="operator" v="ROVA" /><tag k="amenity" v="recycling" /><tag k="recycling:glass_bottles" v="yes" /><tag k="recycling_type" v="container" /></node><node id="-182" lat="52.53355" lon="6.0546" user="Pozoman" version="1" visible="true"><tag k="access" v="yes" /><tag k="operator" v="ROVA" /><tag k="amenity" v="recycling" /><tag k="recycling:glass_bottles" v="yes" /><tag k="recycling_type" v="container" /></node><node id="-183" lat="52.53031" lon="6.10271" user="Pozoman" version="1" visible="true"><tag k="access" v="yes" /><tag k="operator" v="ROVA" /><tag k="amenity" v="recycling" /><tag k="recycling:glass_bottles" v="yes" /><tag k="recycling_type" v="container" /></node><node id="-184" lat="52.48293" lon="6.10974" user="Pozoman" version="1" visible="true"><tag k="access" v="yes" /><tag k="operator" v="ROVA" /><tag k="amenity" v="recycling" /><tag k="recycling:glass_bottles" v="yes" /><tag k="recycling_type" v="container" /></node><node id="-185" lat="52.5158" lon="6.09717" user="Pozoman" version="1" visible="true"><tag k="access" v="yes" /><tag k="operator" v="ROVA" /><tag k="amenity" v="recycling" /><tag k="recycling:glass_bottles" v="yes" /><tag k="recycling_type" v="container" /></node><node id="-186" lat="52.51209" lon="6.09628" user="Pozoman" version="1" visible="true"><tag k="access" v="yes" /><tag k="operator" v="ROVA" /><tag k="amenity" v="recycling" /><tag k="recycling:glass_bottles" v="yes" /><tag k="recycling_type" v="container" /></node><node id="-187" lat="52.51336" lon="6.08957" user="Pozoman" version="1" visible="true"><tag k="access" v="yes" /><tag k="operator" v="ROVA" /><tag k="amenity" v="recycling" /><tag k="recycling:glass_bottles" v="yes" /><tag k="recycling_type" v="container" /></node><node id="-188" lat="52.50633" lon="6.0997" user="Pozoman" version="1" visible="true"><tag k="access" v="yes" /><tag k="operator" v="ROVA" /><tag k="amenity" v="recycling" /><tag k="recycling:glass_bottles" v="yes" /><tag k="recycling_type" v="container" /></node><node id="-189" lat="52.5361" lon="6.09846" user="Pozoman" version="1" visible="true"><tag k="access" v="yes" /><tag k="operator" v="ROVA" /><tag k="amenity" v="recycling" /><tag k="recycling:glass_bottles" v="yes" /><tag k="recycling_type" v="container" /></node><node id="-190" lat="52.52942" lon="6.10112" user="Pozoman" version="1" visible="true"><tag k="access" v="yes" /><tag k="operator" v="ROVA" /><tag k="amenity" v="recycling" /><tag k="recycling:glass_bottles" v="yes" /><tag k="recycling_type" v="container" /></node><node id="-191" lat="52.51279" lon="6.08601" user="Pozoman" version="1" visible="true"><tag k="access" v="yes" /><tag k="operator" v="ROVA" /><tag k="amenity" v="recycling" /><tag k="recycling:glass_bottles" v="yes" /><tag k="recycling_type" v="container" /></node><node id="-192" lat="52.49924" lon="6.1141" user="Pozoman" version="1" visible="true"><tag k="access" v="yes" /><tag k="operator" v="ROVA" /><tag k="amenity" v="recycling" /><tag k="recycling:glass_bottles" v="yes" /><tag k="recycling_type" v="container" /></node><node id="-193" lat="52.53617" lon="6.10893" user="Pozoman" version="1" visible="true"><tag k="access" v="yes" /><tag k="operator" v="ROVA" /><tag k="amenity" v="recycling" /><tag k="recycling:glass_bottles" v="yes" /><tag k="recycling_type" v="container" /></node><node id="-194" lat="52.53345" lon="6.05696" user="Pozoman" version="1" visible="true"><tag k="access" v="yes" /><tag k="operator" v="ROVA" /><tag k="amenity" v="recycling" /><tag k="recycling:glass_bottles" v="yes" /><tag k="recycling_type" v="container" /></node><node id="-195" lat="52.51279" lon="6.08603" user="Pozoman" version="1" visible="true"><tag k="access" v="yes" /><tag k="operator" v="ROVA" /><tag k="amenity" v="recycling" /><tag k="recycling:glass_bottles" v="yes" /><tag k="recycling_type" v="container" /></node><node id="-196" lat="52.5368" lon="6.06393" user="Pozoman" version="1" visible="true"><tag k="access" v="yes" /><tag k="operator" v="ROVA" /><tag k="amenity" v="recycling" /><tag k="recycling:glass_bottles" v="yes" /><tag k="recycling_type" v="container" /></node><node id="-197" lat="52.49336" lon="6.16728" user="Pozoman" version="1" visible="true"><tag k="access" v="yes" /><tag k="operator" v="ROVA" /><tag k="amenity" v="recycling" /><tag k="recycling:glass_bottles" v="yes" /><tag k="recycling_type" v="container" /></node><node id="-198" lat="52.52457" lon="6.06415" user="Pozoman" version="1" visible="true"><tag k="access" v="yes" /><tag k="operator" v="ROVA" /><tag k="amenity" v="recycling" /><tag k="recycling:glass_bottles" v="yes" /><tag k="recycling_type" v="container" /></node><node id="-199" lat="52.52218" lon="6.04893" user="Pozoman" version="1" visible="true"><tag k="access" v="yes" /><tag k="operator" v="ROVA" /><tag k="amenity" v="recycling" /><tag k="recycling:glass_bottles" v="yes" /><tag k="recycling_type" v="container" /></node><node id="-200" lat="52.51003" lon="6.08358" user="Pozoman" version="1" visible="true"><tag k="access" v="yes" /><tag k="operator" v="ROVA" /><tag k="amenity" v="recycling" /><tag k="recycling:glass_bottles" v="yes" /><tag k="recycling_type" v="container" /></node><node id="-201" lat="52.4878" lon="6.11688" user="Pozoman" version="1" visible="true"><tag k="access" v="yes" /><tag k="operator" v="ROVA" /><tag k="amenity" v="recycling" /><tag k="recycling:glass_bottles" v="yes" /><tag k="recycling_type" v="container" /></node><node id="-202" lat="52.53454" lon="6.15071" user="Pozoman" version="1" visible="true"><tag k="access" v="yes" /><tag k="operator" v="ROVA" /><tag k="amenity" v="recycling" /><tag k="recycling:glass_bottles" v="yes" /><tag k="recycling_type" v="container" /></node><node id="-203" lat="52.44763" lon="6.12948" user="Pozoman" version="1" visible="true"><tag k="access" v="yes" /><tag k="operator" v="ROVA" /><tag k="amenity" v="recycling" /><tag k="recycling:glass_bottles" v="yes" /><tag k="recycling_type" v="container" /></node><node id="-204" lat="52.50651" lon="6.10299" user="Pozoman" version="1" visible="true"><tag k="access" v="yes" /><tag k="operator" v="ROVA" /><tag k="amenity" v="recycling" /><tag k="recycling:glass_bottles" v="yes" /><tag k="recycling_type" v="container" /></node><node id="-205" lat="52.53681" lon="6.06393" user="Pozoman" version="1" visible="true"><tag k="access" v="yes" /><tag k="operator" v="ROVA" /><tag k="amenity" v="recycling" /><tag k="recycling:glass_bottles" v="yes" /><tag k="recycling_type" v="container" /></node><node id="-206" lat="52.44764" lon="6.12946" user="Pozoman" version="1" visible="true"><tag k="access" v="yes" /><tag k="operator" v="ROVA" /><tag k="amenity" v="recycling" /><tag k="recycling:glass_bottles" v="yes" /><tag k="recycling_type" v="container" /></node><node id="-207" lat="52.51673" lon="6.10079" user="Pozoman" version="1" visible="true"><tag k="access" v="yes" /><tag k="operator" v="ROVA" /><tag k="amenity" v="recycling" /><tag k="recycling:glass_bottles" v="yes" /><tag k="recycling_type" v="container" /></node><node id="-208" lat="52.51847" lon="6.04491" user="Pozoman" version="1" visible="true"><tag k="access" v="yes" /><tag k="operator" v="ROVA" /><tag k="amenity" v="recycling" /><tag k="recycling:glass_bottles" v="yes" /><tag k="recycling_type" v="container" /></node><node id="-209" lat="52.52132" lon="6.10667" user="Pozoman" version="1" visible="true"><tag k="access" v="yes" /><tag k="operator" v="ROVA" /><tag k="amenity" v="recycling" /><tag k="recycling:glass_bottles" v="yes" /><tag k="recycling_type" v="container" /></node><node id="-210" lat="52.51739" lon="6.0747" user="Pozoman" version="1" visible="true"><tag k="access" v="yes" /><tag k="operator" v="ROVA" /><tag k="amenity" v="recycling" /><tag k="recycling:glass_bottles" v="yes" /><tag k="recycling_type" v="container" /></node><node id="-211" lat="52.51737" lon="6.07475" user="Pozoman" version="1" visible="true"><tag k="access" v="yes" /><tag k="operator" v="ROVA" /><tag k="amenity" v="recycling" /><tag k="recycling:glass_bottles" v="yes" /><tag k="recycling_type" v="container" /></node><node id="-212" lat="52.50034" lon="6.10492" user="Pozoman" version="1" visible="true"><tag k="access" v="yes" /><tag k="operator" v="ROVA" /><tag k="amenity" v="recycling" /><tag k="recycling:glass_bottles" v="yes" /><tag k="recycling_type" v="container" /></node></create></osmChange>